#dP2023 12 16  0  0  0.00000000      96 __u+U IGS20 FIT  IAC
## 2292 518400.00000000   900.00000000 60294 0.0000000000000
+  119   C06C07C08C09C10C11C12C13C14C16C19C20C21C22C23C24C25
+        C26C27C28C29C30C32C33C34C35C36C37C38C39C40C41C42C43
+        C44C45C46E02E03E04E05E07E08E09E10E11E12E13E15E18E19
+        E21E24E25E26E27E30E31E33E34E36G01G02G03G04G05G06G07
+        G08G09G10G11G12G13G14G15G16G17G18G19G20G21G22G23G24
+        G25G26G27G28G29G30G31G32J02J03J04R01R02R03R04R05R07
+        R08R09R11R12R13R14R15R16R17R18R19R20R21R22R24R25R26
++         7  9  9  8  8  9  8  9  8  7  6  6  7  7  8  6  7
++         6  7  7  7  5  7  5  7  8  5  6  8  6  8  7  8  7
++         6  7  6  5  7  6  5  6  6  5  5  5  6  6  6  7  8
++         6  5  6  6  7  6  5  6  6  5  6  6  6  7  6  5  5
++         6  5  7  6  5  6  4  5  6  6  6  4  6  6  5  7  5
++         6  0  6  6  6  6  6  6  6  7  7  8  6  5  6  7  5
++         6  7  6  8  7  6  6  7  7  7  7  7  6  5  7  0  0
%c M  cc GPS ccc cccc cccc cccc cccc ccccc ccccc ccccc ccccc
%c cc cc ccc ccc cccc cccc cccc cccc ccccc ccccc ccccc ccccc
%f  0.0000000  0.000000000  0.00000000000  0.000000000000000
%f  0.0000000  0.000000000  0.00000000000  0.000000000000000
%i    0    0    0    0      0      0      0      0         0
%i    0    0    0    0      0      0      0      0         0
/* INFORMATION & ANALYSIS CENTER (IAC)      ULTRA-RAPID DATA
/* S/V CLOCKS ARE ALIGNED TO GNSS TIME                      
/* G:C1WC2W R:C1PC2P E:C1XC5X C:C2IC6I J:C1CC2S             
/* PCV:IGS20_2290 OL/AL:FES2004  NONE     YN ORB:CoN CLK:CoN
*  2023 12 16  6 30  0.00000000
PC06 -15906.654769  25018.293299  29899.223946    210.733069
PC07 -10068.285400  40988.528630   2424.795383   -482.373743
PC08   2353.347113  27899.289092 -31449.588794    177.460573
PC09  -3143.313457  25083.082660  34105.548843   -223.921099
PC10  -4408.485041  42002.592286  -3990.366627    -55.316987
PC11 -22163.415970  15747.806141  -6245.393345    308.833960
PC12 -24965.459441   4029.532353  11852.293725    824.506911
PC13   7242.426211  30831.355285 -27527.061143    396.249646
PC14 -11561.496935  19428.459948 -16380.772406   -238.142744
PC16 -17708.751078  24492.245531  29514.008095   -228.807108
PC19   6466.301030 -25717.983054   8687.475880   -951.626855
PC20  14374.953339 -11723.619162  20848.894709     24.538463
PC21 -14268.286321 -10679.293304 -21458.656735   -967.368277
PC22  -5619.504660 -25720.156819  -9235.529715   -184.801773
PC23  12095.541237  20121.514567  15073.135377   -803.252949
PC24 -22121.224009    904.479927  16984.219610    697.097959
PC25  -5943.943251  15318.226259  22539.246977    279.218194
PC26 -24840.830897 -12579.526743   2115.679520   -220.896551
PC27  21144.614454   2951.891187 -17991.071906    242.895204
PC28   6385.498581  14693.669943 -22839.574191    183.795270
PC29  14225.644737 -19616.035750  13842.635521    215.181000
PC30  25106.813133 -11584.969217  -3856.124043    -10.512828
PC32  14344.506215  10704.624544  21423.255317   -543.205065
PC33  -6355.879455  25729.885939  -8751.033591   -941.844389
PC34 -24802.567543  12538.014502   2394.630257    325.961485
PC35  -6972.754349 -14516.259394  22784.137357    479.611854
PC36   7076.934321 -14749.820840 -22594.762218    -91.132180
PC37  24363.842461  13485.651656  -1546.513402   -926.542420
PC38  -5779.834279  24684.932695 -33619.489536    124.353305
PC39 -22020.789075  24757.973745  25977.518927     -6.132748
PC40 -16402.826412  38697.585098   4861.385650    -48.049751
PC41   5301.721264  26045.371814   8559.114681   -873.768801
PC42 -14744.174712  10107.481729 -21394.102121   -480.290149
PC43 -14990.951890  19547.538619 -13096.438628     52.498074
PC44 -21159.497059  -2398.041212  18010.832150    324.297364
PC45 -12560.455951 -20082.473438 -14785.813732    -55.323351
PC46  21441.670354  -1741.065477 -17763.743943   -107.892666
PE02   3263.168802 -22907.458825 -18480.168037     87.019181
PE03  13392.996188 -25904.734913  -5066.916856    -80.435237
PE04   2754.779622  21277.029749  20392.564419   -281.195287
PE05  21614.693712 -15444.167389  13058.323115   4700.955002
PE07 -17027.757676  -4578.021939 -23776.458698    -93.290839
PE08  -2154.592850 -21575.470295 -20153.734132   -192.934494
PE09  16835.750147   4631.108050  23896.873895   -264.675349
PE10  21187.217891  12285.275885 -16617.317590   -586.721915
PE11  27799.950522   6974.503071  -7419.771601   3266.731224
PE12  12106.833432  15357.958543 -22219.973852   -820.906272
PE13 -27499.942647  -7337.766526   8133.860843    -19.696486
PE15 -11539.076568 -15386.432730  22512.034752    -74.961373
PE18 -16539.644757  26904.656540  -4413.097687    100.126964
PE19 -15087.329393  25307.364661   2802.897793  -1005.807213
PE21 -15694.084101   6047.880576  24353.618113   -569.095530
PE24  19508.545288  15520.516569 -15955.256811   -488.529511
PE25  15867.374086  -5656.445328 -24337.371872     -1.904337
PE26 -26825.143920   5333.217073 -11313.783564    311.066719
PE27 -19584.182741 -15088.386034  16288.593126   -225.340463
PE30 -11598.066751 -27200.142020  -1584.627833   -745.803008
PE31  11881.931269  27074.321623   1281.941985    -11.816447
PE33 -11584.620808  14120.976941 -23285.115630      4.278785
PE34  10899.350412 -14331.345826  23494.470138    -83.622824
PE36  27133.857985  -4884.478708  10790.364802   -158.362974
PG01  14566.209740  13393.242169 -18236.181124    164.050304
PG02   8113.611414  14090.074169 -20547.083586   -514.872080
PG03  11739.495590  23884.816380    378.368179     58.123081
PG04   5290.433883  16448.600745  20143.238518    240.760042
PG05  -4107.030255 -23628.709405  11138.497016   -154.304154
PG06  21772.708212  -7101.852676  13614.678248    476.482459
PG07  25469.903650   6261.204188   6050.585353    -13.096625
PG08  -1014.391552  21607.338357 -15206.119832   -157.219753
PG09  14442.088999   5549.143607  21507.808686     28.285133
PG10 -15092.538678   1936.377656 -21611.838551    -65.501231
PG11  12023.909165 -12525.273924  20108.127454   -502.666667
PG12  -9695.626064 -24771.269187   -275.686771   -457.930198
PG13  11834.530265 -22026.477685  -8829.767589    606.125206
PG14  16925.218266   1867.103282 -20402.317833    272.169572
PG15  -1772.054856 -22002.910970 -15104.023730    107.419999
PG16  -3382.514425  21012.849415  15268.500076   -403.237560
PG17  19727.694231  -8353.384435 -15355.709323    721.911410
PG18 -25872.116965  -5090.394203   3947.218255   -507.503732
PG19  20207.937916 -14712.953276  -8626.846367    413.138332
PG20   5409.539662 -16822.813757  19934.438055    396.411514
PG21   4528.746938  14736.008790 -21217.527074    141.395864
PG22  13606.294982  -6308.553506 -21490.510039     65.216591
PG23 -18022.954702 -10954.478418 -16242.565716    116.978223
PG24  -8264.772175 -15156.629563 -20677.937882   -394.342647
PG25 -16877.303851 -18003.218943   9844.806468    481.662501
PG26      0.000000      0.000000      0.000000 999999.999999
PG27 -12107.992910  23069.158289  -4059.461447    -83.556406
PG28 -23254.344377   6695.696927  10914.886713    -71.395227
PG29 -13153.122503  -7318.857528  21844.843449   -609.724074
PG30  26250.475724  -1339.051383  -4591.015819   -456.896006
PG31 -17368.513462  10526.041465  17120.400943   -226.634261
PG32 -19257.685156  12261.933452 -13204.813184   -596.743786
PJ02 -26542.320715  23761.812097  27695.799113     -0.588210
PJ03 -32963.782774  19311.503714 -13003.423442    -12.170824
PJ04 -19860.435027  32161.703175 -13713.140014     74.316575
PR01  11173.687902 -14605.236371  17674.188941     72.237971
PR02   6324.078716 -24677.823175   1965.580445    -22.344906
PR03  -2730.232197 -20694.579566 -14665.874817     91.010550
PR04  -9695.672977  -5435.533500 -22934.319925    215.574543
PR05 -11697.017435  12657.259957 -18783.392157    123.868870
PR07   3226.052593  20027.904314  15464.167269     71.457180
PR08   9958.429693   5093.653823  22978.387816    -73.718268
PR09   1118.191495  14518.751727  20977.515243    158.992993
PR11  20542.163955  13269.953451  -7271.901831   -221.743163
PR12  13959.933466  -1305.684227 -21285.782912     34.521712
PR13   1036.120540 -13022.938032 -21929.138717    -42.355498
PR14 -14984.542622 -18671.496443  -8776.227629     25.773090
PR15 -20470.949915 -12527.959880   8651.222200     83.919810
PR16 -14056.463526   1055.934291  21254.967753     21.593844
PR17  -7119.714632  -8698.587412  22916.963892     43.919747
PR18 -20865.230550   -436.074184  14654.391257    117.112308
PR19 -24618.209281   6677.521005    392.854610   -258.468167
PR20 -12815.627606  12061.429061 -18430.714827   -105.229942
PR21   7533.011192   8464.038472 -22842.227299    -61.361042
PR22  21538.251470    676.405248 -13628.063954     98.495591
PR24  11659.232836 -12943.797605  18650.065168    -36.130292
PR25      0.000000      0.000000      0.000000 999999.999999
PR26   6825.478674   9275.571085 -22747.886681 999999.999999
EOF
